{
  "norad_id": 58740,
  "name": "STARLINK-31159",
  "history": [
    {
      "epoch": "2026-03-28T18:06:24.448032",
      "apogee_km": 483.88518422383913,
      "perigee_km": 482.2170921636816,
      "latitude_deg": 14.912196008544042,
      "longitude_deg": 126.42716447985731,
      "semi_major_axis_km": 6861.18813819376,
      "eccentricity": 0.00012156,
      "inclination_deg": 43.0007,
      "raan_deg": 111.7088,
      "arg_perigee_deg": 280.6064,
      "mean_anomaly_deg": 79.4651,
      "mean_motion_rev_day": 15.27579318
    },
    {
      "epoch": "2026-03-29T01:57:11.252736",
      "apogee_km": 483.8424870443323,
      "perigee_km": 482.23834376461036,
      "latitude_deg": -27.640900741932676,
      "longitude_deg": 157.8125030400697,
      "semi_major_axis_km": 6861.177415404471,
      "eccentricity": 0.0001169,
      "inclination_deg": 43.0007,
      "raan_deg": 109.862,
      "arg_perigee_deg": 279.7178,
      "mean_anomaly_deg": 80.3542,
      "mean_motion_rev_day": 15.27582899
    }
  ]
}